$$SOE
2460728.500000000, A.D. 2025-Feb-22 00:00:00.0000, -3.593260660646847E+08, -6.054755085527232E+07, 1.314139379286188E+07,
2460735.500000000, A.D. 2025-Mar-01 00:00:00.0000, -3.585493468995260E+08, -7.249730374740113E+07, 1.164756937145916E+07,
2460742.500000000, A.D. 2025-Mar-08 00:00:00.0000, -3.574175904737871E+08, -8.437533975462985E+07, 1.014220862213958E+07,
2460749.500000000, A.D. 2025-Mar-15 00:00:00.0000, -3.559359170765982E+08, -9.617084159191291E+07, 8.626915423993926E+06,
2460756.500000000, A.D. 2025-Mar-22 00:00:00.0000, -3.541097779569606E+08, -1.078733402821388E+08, 7.103270197171777E+06,
2460763.500000000, A.D. 2025-Mar-29 00:00:00.0000, -3.519449320036339E+08, -1.194727237507197E+08, 5.572827639663830E+06,
2460770.500000000, A.D. 2025-Apr-05 00:00:00.0000, -3.494474211176720E+08, -1.309592428972327E+08, 4.037114600522377E+06,
2460777.500000000, A.D. 2025-Apr-12 00:00:00.0000, -3.466235462938499E+08, -1.423235151262091E+08, 2.497628269245818E+06,
2460784.500000000, A.D. 2025-Apr-19 00:00:00.0000, -3.434798446765247E+08, -1.535565263160964E+08, 9.558346198472530E+05,
2460791.500000000, A.D. 2025-Apr-26 00:00:00.0000, -3.400230673922353E+08, -1.646496315348845E+08, -5.868329394849837E+05,
2460798.500000000, A.D. 2025-May-03 00:00:00.0000, -3.362601581148055E+08, -1.755945545895541E+08, -2.128974728339992E+06,
2460805.500000000, A.D. 2025-May-10 00:00:00.0000, -3.321982323955384E+08, -1.863833865038954E+08, -3.669225778623998E+06,
2460812.500000000, A.D. 2025-May-17 00:00:00.0000, -3.278445577717201E+08, -1.970085830648248E+08, -5.206256658058569E+06,
2460819.500000000, A.D. 2025-May-24 00:00:00.0000, -3.232065345172852E+08, -2.074629615871159E+08, -6.738774163078934E+06,
2460826.500000000, A.D. 2025-May-31 00:00:00.0000, -3.182916766441410E+08, -2.177396966778741E+08, -8.265521904268414E+06,
2460833.500000000, A.D. 2025-Jun-07 00:00:00.0000, -3.131075935709202E+08, -2.278323138850960E+08, -9.785280659355238E+06,
2460840.500000000, A.D. 2025-Jun-14 00:00:00.0000, -3.076619748304624E+08, -2.377346819836577E+08, -1.129686834166244E+07,
2460847.500000000, A.D. 2025-Jun-21 00:00:00.0000, -3.019625766003991E+08, -2.474410072549797E+08, -1.279913997329293E+07,
2460854.500000000, A.D. 2025-Jun-28 00:00:00.0000, -2.960172069260904E+08, -2.569458280766453E+08, -1.429098781584279E+07,
2460861.500000000, A.D. 2025-Jul-05 00:00:00.0000, -2.898337111438547E+08, -2.662440077396080E+08, -1.577134135278544E+07,
2460868.500000000, A.D. 2025-Jul-12 00:00:00.0000, -2.834199586798912E+08, -2.753307263669430E+08, -1.723916708915125E+07,
2460875.500000000, A.D. 2025-Jul-19 00:00:00.0000, -2.767838310151041E+08, -2.842014725744839E+08, -1.869346824175051E+07,
2460882.500000000, A.D. 2025-Jul-26 00:00:00.0000, -2.699332105834355E+08, -2.928520349921421E+08, -2.013328435251477E+07,
2460889.500000000, A.D. 2025-Aug-02 00:00:00.0000, -2.628759705145533E+08, -3.012784936820272E+08, -2.155769083748512E+07,
2460896.500000000, A.D. 2025-Aug-09 00:00:00.0000, -2.556199651717494E+08, -3.094772115202668E+08, -2.296579848250920E+07,
2460903.500000000, A.D. 2025-Aug-16 00:00:00.0000, -2.481730213800687E+08, -3.174448256529094E+08, -2.435675290503845E+07,
2460910.500000000, A.D. 2025-Aug-23 00:00:00.0000, -2.405429300222532E+08, -3.251782390521700E+08, -2.572973401420119E+07,
2460917.500000000, A.D. 2025-Aug-30 00:00:00.0000, -2.327374376426569E+08, -3.326746114974840E+08, -2.708395544716907E+07,
2460924.500000000, A.D. 2025-Sep-06 00:00:00.0000, -2.247642394452396E+08, -3.399313490151246E+08, -2.841866377567568E+07,
2460931.500000000, A.D. 2025-Sep-13 00:00:00.0000, -2.166309753232256E+08, -3.469460942898174E+08, -2.973313753766653E+07,
2460938.500000000, A.D. 2025-Sep-20 00:00:00.0000, -2.083452256147948E+08, -3.537167197217721E+08, -3.102668653385533E+07,
2460945.500000000, A.D. 2025-Sep-27 00:00:00.0000, -1.999145054956037E+08, -3.602413200434623E+08, -3.229865123675652E+07,
2460952.500000000, A.D. 2025-Oct-04 00:00:00.0000, -1.913462599942795E+08, -3.665182039779410E+08, -3.354840208729754E+07,
2460959.500000000, A.D. 2025-Oct-11 00:00:00.0000, -1.826478599735768E+08, -3.725458858988446E+08, -3.477533872550732E+07,
2460966.500000000, A.D. 2025-Oct-18 00:00:00.0000, -1.738265987625316E+08, -3.783230777810206E+08, -3.597888920716906E+07,
2460973.500000000, A.D. 2025-Oct-25 00:00:00.0000, -1.648896892695770E+08, -3.838486814436612E+08, -3.715850922167921E+07,
2460980.500000000, A.D. 2025-Nov-01 00:00:00.0000, -1.558442615080617E+08, -3.891217810820645E+08, -3.831368131671920E+07,
2460987.500000000, A.D. 2025-Nov-08 00:00:00.0000, -1.466973604722381E+08, -3.941416361292504E+08, -3.944391413850957E+07,
2460994.500000000, A.D. 2025-Nov-15 00:00:00.0000, -1.374559441898270E+08, -3.989076745136172E+08, -4.054874170873204E+07,
2461001.500000000, A.D. 2025-Nov-22 00:00:00.0000, -1.281268815235496E+08, -4.034194860982589E+08, -4.162772275952846E+07,
2461008.500000000, A.D. 2025-Nov-29 00:00:00.0000, -1.187169498511790E+08, -4.076768151707866E+08, -4.268044002194831E+07,
2461015.500000000, A.D. 2025-Dec-06 00:00:00.0000, -1.092328348789263E+08, -4.116795521210884E+08, -4.370649927184582E+07,
2461022.500000000, A.D. 2025-Dec-13 00:00:00.0000, -9.968113213245811E+07, -4.154277276770633E+08, -4.470552844988123E+07,
2461029.500000000, A.D. 2025-Dec-20 00:00:00.0000, -9.006834661162423E+07, -4.189215086745492E+08, -4.567717709360331E+07,
2461036.500000000, A.D. 2025-Dec-27 00:00:00.0000, -8.040089166313204E+07, -4.221611927678618E+08, -4.662111577204776E+07,
2461043.500000000, A.D. 2026-Jan-03 00:00:00.0000, -7.068508851056169E+07, -4.251472026924496E+08, -4.753703543967250E+07,
2461050.500000000, A.D. 2026-Jan-10 00:00:00.0000, -6.092716631217501E+07, -4.278800807548692E+08, -4.842464677569783E+07,
2461057.500000000, A.D. 2026-Jan-17 00:00:00.0000, -5.113326249561416E+07, -4.303604836390700E+08, -4.928367953851783E+07,
2461064.500000000, A.D. 2026-Jan-24 00:00:00.0000, -4.130942327535074E+07, -4.325891775041285E+08, -5.011388194145837E+07,
2461071.500000000, A.D. 2026-Jan-31 00:00:00.0000, -3.146160431519864E+07, -4.345670333781679E+08, -5.091502005346647E+07,
2461078.500000000, A.D. 2026-Feb-07 00:00:00.0000, -2.159567146164726E+07, -4.362950229021748E+08, -5.168687723554811E+07,
2461085.500000000, A.D. 2026-Feb-14 00:00:00.0000, -1.171740128320782E+07, -4.377742144342106E+08, -5.242925363754007E+07,
2461092.500000000, A.D. 2026-Feb-21 00:00:00.0000, -1.832481017026385E+06, -4.390057689312922E+08, -5.314196574346581E+07,
2461099.500000000, A.D. 2026-Feb-28 00:00:00.0000, 8.053491003086673E+06, -4.399909344490449E+08, -5.382484577139774E+07,
2461106.500000000, A.D. 2026-Mar-07 00:00:00.0000, 1.793500238918216E+07, -4.407310412018498E+08, -5.447774089793575E+07,
2461113.500000000, A.D. 2026-Mar-14 00:00:00.0000, 2.780662399872425E+07, -4.412274995095789E+08, -5.510051275222209E+07,
2461120.500000000, A.D. 2026-Mar-21 00:00:00.0000, 3.766300928399375E+07, -4.414817977282692E+08, -5.569303710611692E+07,
2461127.500000000, A.D. 2026-Mar-28 00:00:00.0000, 4.749889369040452E+07, -4.414954991316538E+08, -5.625520349200368E+07,
2461134.500000000, A.D. 2026-Apr-04 00:00:00.0000, 5.730909350761944E+07, -4.412702387040800E+08, -5.678691477140933E+07,
2461141.500000000, A.D. 2026-Apr-11 00:00:00.0000, 6.708850445445202E+07, -4.408077201993687E+08, -5.728808670852193E+07,
2461148.500000000, A.D. 2026-Apr-18 00:00:00.0000, 7.683210016344544E+07, -4.401097134667430E+08, -5.775864756322542E+07,
2461155.500000000, A.D. 2026-Apr-25 00:00:00.0000, 8.653493061737588E+07, -4.391780520233449E+08, -5.819853770608482E+07,
2461162.500000000, A.D. 2026-May-02 00:00:00.0000, 9.619212057487054E+07, -4.380146308973848E+08, -5.860770926001260E+07,
2461169.500000000, A.D. 2026-May-09 00:00:00.0000, 1.057988681161156E+08, -4.366214048033687E+08, -5.898612578510255E+07,
2461176.500000000, A.D. 2026-May-16 00:00:00.0000, 1.153504436922851E+08, -4.350003865070826E+08, -5.933376202974054E+07,
2461183.500000000, A.D. 2026-May-23 00:00:00.0000, 1.248421897351847E+08, -4.331536443542216E+08, -5.965060366893980E+07,
2461190.500000000, A.D. 2026-May-30 00:00:00.0000, 1.342695187523699E+08, -4.310832986386524E+08, -5.993664681279486E+07,
2461197.500000000, A.D. 2026-Jun-06 00:00:00.0000, 1.436279095939581E+08, -4.287915200781869E+08, -6.019189752304834E+07,
2461204.500000000, A.D. 2026-Jun-13 00:00:00.0000, 1.529129055612905E+08, -4.262805301938255E+08, -6.041637165756613E+07,
2461211.500000000, A.D. 2026-Jun-20 00:00:00.0000, 1.621201138603583E+08, -4.235526006629624E+08, -6.061009475773251E+07,
2461218.500000000, A.D. 2026-Jun-27 00:00:00.0000, 1.712452047045932E+08, -4.206100519831946E+08, -6.077310185081527E+07,
2461225.500000000, A.D. 2026-Jul-04 00:00:00.0000, 1.802839100693387E+08, -4.174552522179131E+08, -6.090543723055878E+07,
2461232.500000000, A.D. 2026-Jul-11 00:00:00.0000, 1.892320223541009E+08, -4.140906159516573E+08, -6.100715424992365E+07,
2461239.500000000, A.D. 2026-Jul-18 00:00:00.0000, 1.980853930472600E+08, -4.105186034253963E+08, -6.107831513214120E+07,
2461246.500000000, A.D. 2026-Jul-25 00:00:00.0000, 2.068399314196554E+08, -4.067417198446406E+08, -6.111899080179194E+07,
2461253.500000000, A.D. 2026-Aug-01 00:00:00.0000, 2.154916032975762E+08, -4.027625149041023E+08, -6.112926074399295E+07,
2461260.500000000, A.D. 2026-Aug-08 00:00:00.0000, 2.240364301331301E+08, -3.985835825612217E+08, -6.110921291427052E+07,
2461267.500000000, A.D. 2026-Aug-15 00:00:00.0000, 2.324704887900650E+08, -3.942075606061183E+08, -6.105894370051585E+07,
2461274.500000000, A.D. 2026-Aug-22 00:00:00.0000, 2.407899112857789E+08, -3.896371288055251E+08, -6.097855776750244E+07,
2461281.500000000, A.D. 2026-Aug-29 00:00:00.0000, 2.489908822003705E+08, -3.848750069911098E+08, -6.086816768589693E+07,
2461288.500000000, A.D. 2026-Sep-05 00:00:00.0000, 2.570696358859213E+08, -3.799239559556273E+08, -6.072789377517049E+07,
$$EOE